{"type": "FeatureCollection", "features": [ {"type": "Feature", "properties": {"norad_id": 41469, "name": "IRNSS-1G", "group": "gnss", "lat": -1.2517015925616528, "lon": -62.812170385296255, "alt_km": 35792.4511860877, "timestamp": "2025-12-13T05:42:57.799777+00:00", "meta": {"OBJECT_NAME": "IRNSS-1G", "OBJECT_ID": "2016-027A", "EPOCH": "2025-12-12T05:31:49.340352", "MEAN_MOTION": 1.00280398, "ECCENTRICITY": 0.00025781, "INCLINATION": 4.7324, "RA_OF_ASC_NODE": 102.1104, "ARG_OF_PERICENTER": 336.0254, "MEAN_ANOMALY": 215.3107, "EPHEMERIS_TYPE": 0, "CLASSIFICATION_TYPE": "U", "NORAD_CAT_ID": 41469, "ELEMENT_SET_NO": 999, "REV_AT_EPOCH": 3530, "BSTAR": 0, "MEAN_MOTION_DOT": -3.24e-06, "MEAN_MOTION_DDOT": 0}, "tle": {"line1": "1 41469U 16027A   25346.23043218 -.00000324  00000+0  00000+0 0  9991", "line2": "2 41469   4.7324 102.1104 0002578 336.0254 215.3107  1.00280398 35301"}}, "geometry": {"type": "Point", "coordinates": [-62.812170385296255, -1.2517015925616528]}}, {"type": "Feature", "properties": {"norad_id": 41549, "name": "GSAT0211 (GALILEO 14)", "group": "gnss", "lat": -44.48783506745858, "lon": 89.95036658949847, "alt_km": 23236.800210046953, "timestamp": "2025-12-13T05:42:57.799789+00:00", "meta": {"OBJECT_NAME": "GSAT0211 (GALILEO 14)", "OBJECT_ID": "2016-030A", "EPOCH": "2025-12-11T02:09:03.353760", "MEAN_MOTION": 1.70473055, "ECCENTRICITY": 0.00041282, "INCLINATION": 55.1527, "RA_OF_ASC_NODE": 226.8689, "ARG_OF_PERICENTER": 18.4657, "MEAN_ANOMALY": 341.6286, "EPHEMERIS_TYPE": 0, "CLASSIFICATION_TYPE": "U", "NORAD_CAT_ID": 41549, "ELEMENT_SET_NO": 999, "REV_AT_EPOCH": 5946, "BSTAR": 0, "MEAN_MOTION_DOT": 9e-08, "MEAN_MOTION_DDOT": 0}, "tle": {"line1": "1 41549U 16030A   25345.08962215  .00000009  00000+0  00000+0 0  9992", "line2": "2 41549  55.1527 226.8689 0004128  18.4657 341.6286  1.70473055 59463"}}, "geometry": {"type": "Point", "coordinates": [89.95036658949847, -44.48783506745858]}}, {"type": "Feature", "properties": {"norad_id": 41550, "name": "GSAT0210 (GALILEO 13)", "group": "gnss", "lat": 54.08057053823405, "lon": -59.2659158368578, "alt_km": 23219.30012115974, "timestamp": "2025-12-13T05:42:57.799801+00:00", "meta": {"OBJECT_NAME": "GSAT0210 (GALILEO 13)", "OBJECT_ID": "2016-030B", "EPOCH": "2025-12-11T08:19:41.751264", "MEAN_MOTION": 1.70473653, "ECCENTRICITY": 0.00011945, "INCLINATION": 55.152, "RA_OF_ASC_NODE": 226.8599, "ARG_OF_PERICENTER": 242.2312, "MEAN_ANOMALY": 117.8354, "EPHEMERIS_TYPE": 0, "CLASSIFICATION_TYPE": "U", "NORAD_CAT_ID": 41550, "ELEMENT_SET_NO": 999, "REV_AT_EPOCH": 5946, "BSTAR": 0, "MEAN_MOTION_DOT": 1e-07, "MEAN_MOTION_DDOT": 0}, "tle": {"line1": "1 41550U 16030B   25345.34701101  .00000010  00000+0  00000+0 0  9990", "line2": "2 41550  55.1520 226.8599 0001194 242.2312 117.8354  1.70473653 59466"}}, "geometry": {"type": "Point", "coordinates": [-59.2659158368578, 54.08057053823405]}}, {"type": "Feature", "properties": {"norad_id": 41586, "name": "BEIDOU-2 G7 (C03)", "group": "gnss", "lat": -0.9100767587600975, "lon": -81.71584351275486, "alt_km": 35803.81267953349, "timestamp": "2025-12-13T05:42:57.799813+00:00", "meta": {"OBJECT_NAME": "BEIDOU-2 G7 (C03)", "OBJECT_ID": "2016-037A", "EPOCH": "2025-12-12T07:09:24.994080", "MEAN_MOTION": 1.00267359, "ECCENTRICITY": 0.0004472, "INCLINATION": 1.7563, "RA_OF_ASC_NODE": 67.7595, "ARG_OF_PERICENTER": 359.4663, "MEAN_ANOMALY": 231.8039, "EPHEMERIS_TYPE": 0, "CLASSIFICATION_TYPE": "U", "NORAD_CAT_ID": 41586, "ELEMENT_SET_NO": 999, "REV_AT_EPOCH": 501, "BSTAR": 0, "MEAN_MOTION_DOT": -3.43e-06, "MEAN_MOTION_DDOT": 0}, "tle": {"line1": "1 41586U 16037A   25346.29820595 -.00000343  00000+0  00000+0 0  9990", "line2": "2 41586   1.7563  67.7595 0004472 359.4663 231.8039  1.00267359  5015"}}, "geometry": {"type": "Point", "coordinates": [-81.71584351275486, -0.9100767587600975]}}, {"type": "Feature", "properties": {"norad_id": 41589, "name": "EUTELSAT 117 WEST B (WAAS/PRN 131)", "group": "gnss", "lat": -0.009282249314828605, "lon": 50.950468410515924, "alt_km": 35782.38917657608, "timestamp": "2025-12-13T05:42:57.799825+00:00", "meta": {"OBJECT_NAME": "EUTELSAT 117 WEST B (WAAS/PRN 131)", "OBJECT_ID": "2016-038B", "EPOCH": "2025-12-11T23:13:36.273216", "MEAN_MOTION": 1.00275784, "ECCENTRICITY": 5.99e-05, "INCLINATION": 0.0087, "RA_OF_ASC_NODE": 154.6922, "ARG_OF_PERICENTER": 250.9411, "MEAN_ANOMALY": 266.7128, "EPHEMERIS_TYPE": 0, "CLASSIFICATION_TYPE": "U", "NORAD_CAT_ID": 41589, "ELEMENT_SET_NO": 999, "REV_AT_EPOCH": 3478, "BSTAR": 0, "MEAN_MOTION_DOT": -4e-08, "MEAN_MOTION_DDOT": 0}, "tle": {"line1": "1 41589U 16038B   25345.96778094 -.00000004  00000+0  00000+0 0  9997", "line2": "2 41589   0.0087 154.6922 0000599 250.9411 266.7128  1.00275784 34786"}}, "geometry": {"type": "Point", "coordinates": [50.950468410515924, -0.009282249314828605]}}, {"type": "Feature", "properties": {"norad_id": 41859, "name": "GSAT0207 (GALILEO 15)", "group": "gnss", "lat": -55.38809834984283, "lon": 15.954006973041734, "alt_km": 23224.25897919547, "timestamp": "2025-12-13T05:42:57.799843+00:00", "meta": {"OBJECT_NAME": "GSAT0207 (GALILEO 15)", "OBJECT_ID": "2016-069A", "EPOCH": "2025-12-09T20:46:23.344608", "MEAN_MOTION": 1.70474355, "ECCENTRICITY": 0.00021941, "INCLINATION": 55.3802, "RA_OF_ASC_NODE": 106.3298, "ARG_OF_PERICENTER": 323.9491, "MEAN_ANOMALY": 36.0038, "EPHEMERIS_TYPE": 0, "CLASSIFICATION_TYPE": "U", "NORAD_CAT_ID": 41859, "ELEMENT_SET_NO": 999, "REV_AT_EPOCH": 5617, "BSTAR": 0, "MEAN_MOTION_DOT": 1.1e-07, "MEAN_MOTION_DDOT": 0}, "tle": {"line1": "1 41859U 16069A   25343.86554797  .00000011  00000+0  00000+0 0  9997", "line2": "2 41859  55.3802 106.3298 0002194 323.9491  36.0038  1.70474355 56173"}}, "geometry": {"type": "Point", "coordinates": [15.954006973041734, -55.38809834984283]}}, {"type": "Feature", "properties": {"norad_id": 41860, "name": "GSAT0212 (GALILEO 16)", "group": "gnss", "lat": -0.2715174453652847, "lon": 106.03238019534643, "alt_km": 23216.759375435708, "timestamp": "2025-12-13T05:42:57.799855+00:00", "meta": {"OBJECT_NAME": "GSAT0212 (GALILEO 16)", "OBJECT_ID": "2016-069B", "EPOCH": "2025-12-11T11:29:42.448992", "MEAN_MOTION": 1.70474595, "ECCENTRICITY": 0.00021636, "INCLINATION": 55.3791, "RA_OF_ASC_NODE": 106.2805, "ARG_OF_PERICENTER": 27.6057, "MEAN_ANOMALY": 332.3763, "EPHEMERIS_TYPE": 0, "CLASSIFICATION_TYPE": "U", "NORAD_CAT_ID": 41860, "ELEMENT_SET_NO": 999, "REV_AT_EPOCH": 5645, "BSTAR": 0, "MEAN_MOTION_DOT": 8e-08, "MEAN_MOTION_DDOT": 0}, "tle": {"line1": "1 41860U 16069B   25345.47896353  .00000008  00000+0  00000+0 0  9991", "line2": "2 41860  55.3791 106.2805 0002163  27.6057 332.3763  1.70474595 56451"}}, "geometry": {"type": "Point", "coordinates": [106.03238019534643, -0.2715174453652847]}}, {"type": "Feature", "properties": {"norad_id": 41861, "name": "GSAT0213 (GALILEO 17)", "group": "gnss", "lat": 36.23776657515064, "lon": -104.1576877730538, "alt_km": 23223.68900921217, "timestamp": "2025-12-13T05:42:57.799866+00:00", "meta": {"OBJECT_NAME": "GSAT0213 (GALILEO 17)", "OBJECT_ID": "2016-069C", "EPOCH": "2025-12-11T06:14:19.190112", "MEAN_MOTION": 1.70474845, "ECCENTRICITY": 0.00023572, "INCLINATION": 55.3813, "RA_OF_ASC_NODE": 106.2942, "ARG_OF_PERICENTER": 283.5833, "MEAN_ANOMALY": 76.361, "EPHEMERIS_TYPE": 0, "CLASSIFICATION_TYPE": "U", "NORAD_CAT_ID": 41861, "ELEMENT_SET_NO": 999, "REV_AT_EPOCH": 5631, "BSTAR": 0, "MEAN_MOTION_DOT": 9e-08, "MEAN_MOTION_DDOT": 0}, "tle": {"line1": "1 41861U 16069C   25345.25994433  .00000009  00000+0  00000+0 0  9997", "line2": "2 41861  55.3813 106.2942 0002357 283.5833  76.3610  1.70474845 56318"}}, "geometry": {"type": "Point", "coordinates": [-104.1576877730538, 36.23776657515064]}}, {"type": "Feature", "properties": {"norad_id": 41862, "name": "GSAT0214 (GALILEO 18)", "group": "gnss", "lat": 35.223742582394486, "lon": 135.3840283721206, "alt_km": 23219.43734786414, "timestamp": "2025-12-13T05:42:57.799877+00:00", "meta": {"OBJECT_NAME": "GSAT0214 (GALILEO 18)", "OBJECT_ID": "2016-069D", "EPOCH": "2025-12-11T23:49:14.158272", "MEAN_MOTION": 1.70474744, "ECCENTRICITY": 0.00013617, "INCLINATION": 55.3798, "RA_OF_ASC_NODE": 106.2667, "ARG_OF_PERICENTER": 290.5776, "MEAN_ANOMALY": 69.3783, "EPHEMERIS_TYPE": 0, "CLASSIFICATION_TYPE": "U", "NORAD_CAT_ID": 41862, "ELEMENT_SET_NO": 999, "REV_AT_EPOCH": 5645, "BSTAR": 0, "MEAN_MOTION_DOT": 6e-08, "MEAN_MOTION_DDOT": 0}, "tle": {"line1": "1 41862U 16069D   25345.99252498  .00000006  00000+0  00000+0 0  9994", "line2": "2 41862  55.3798 106.2667 0001361 290.5776  69.3783  1.70474744 56459"}}, "geometry": {"type": "Point", "coordinates": [135.3840283721206, 35.223742582394486]}}, {"type": "Feature", "properties": {"norad_id": 42709, "name": "SES-15 (WAAS/PRN 133)", "group": "gnss", "lat": 0.031576218596448, "lon": 38.715602376601, "alt_km": 35787.49920030462, "timestamp": "2025-12-13T05:42:57.799889+00:00", "meta": {"OBJECT_NAME": "SES-15 (WAAS/PRN 133)", "OBJECT_ID": "2017-026A", "EPOCH": "2025-12-11T16:19:13.923264", "MEAN_MOTION": 1.00267448, "ECCENTRICITY": 3.86e-05, "INCLINATION": 0.0193, "RA_OF_ASC_NODE": 345.5033, "ARG_OF_PERICENTER": 311.6118, "MEAN_ANOMALY": 259.1574, "EPHEMERIS_TYPE": 0, "CLASSIFICATION_TYPE": "U", "NORAD_CAT_ID": 42709, "ELEMENT_SET_NO": 999, "REV_AT_EPOCH": 555, "BSTAR": 0, "MEAN_MOTION_DOT": 6.8e-07, "MEAN_MOTION_DDOT": 0}, "tle": {"line1": "1 42709U 17026A   25345.68002226  .00000068  00000+0  00000+0 0  9995", "line2": "2 42709   0.0193 345.5033 0000386 311.6118 259.1574  1.00267448  5558"}}, "geometry": {"type": "Point", "coordinates": [38.715602376601, 0.031576218596448]}}]}